STARLINK-3828           
1 52469U 22049U   24015.30895556  .00007629  00000+0  49664-3 0  9991
2 52469  53.2160 340.3387 0001520  88.9369 271.1797 15.08858832 93996
STARLINK-3859           
1 52470U 22049V   24015.16176084  .00002319  00000+0  16375-3 0  9999
2 52470  53.2187 340.9915 0001638  77.9778 282.1398 15.08844248 93975
STARLINK-3862           
1 52471U 22049W   24015.30622803  .00001269  00000+0  97759-4 0  9990
2 52471  53.2190 340.3597 0001681  96.8985 263.2199 15.08853946 93994
STARLINK-3881           
1 52472U 22049X   24015.29055290  .00004146  00000+0  27831-3 0  9999
2 52472  53.2177 340.4233 0001618  80.9245 279.1931 15.08855952 93990
STARLINK-3879           
1 52473U 22049Y   24015.16543882  .00002157  00000+0  15358-3 0  9996
2 52473  53.2171 340.9863 0001736  96.9701 263.1488 15.08846385 93972
STARLINK-3855           
1 52474U 22049Z   24015.24458685  .00002535  00000+0  17725-3 0  9992
2 52474  53.2196 330.6419 0001750 119.5188 240.5978 15.08852362 94123
STARLINK-3882           
1 52475U 22049AA  24015.11394621  .00006842  00000+0  44736-3 0  9995
2 52475  53.2180 341.4398 0001698 104.4112 255.7069 15.08854931 93968
STARLINK-3835           
1 52476U 22049AB  24015.19678065  .00005157  00000+0  34173-3 0  9993
2 52476  53.2199 331.0833 0001737  94.0367 266.0824 15.08856999 94116
STARLINK-3860           
1 52477U 22049AC  24015.24731272  .00002692  00000+0  18712-3 0  9992
2 52477  53.2195 330.6215 0001571 101.9243 258.1926 15.08849449 94127
STARLINK-3825           
1 52478U 22049AD  24015.28319459  .00001980  00000+0  14240-3 0  9997
2 52478  53.2182 340.4609 0001612  83.7885 276.3291 15.08851560 93993
STARLINK-3878           
1 52479U 22049AE  24015.16635623  .00011197  00000+0  72007-3 0  9995
2 52479  53.2186 330.9766 0001482 103.2819 256.8339 15.08859696 94115
STARLINK-3839           
1 52480U 22049AF  24015.27950910  .00003230  00000+0  22083-3 0  9996
2 52480  53.2180 340.4760 0001557  81.7735 278.3434 15.08856883 93996
STARLINK-3842           
1 52481U 22049AG  24014.29328110  .00005103  00000+0  33843-3 0  9996
2 52481  53.2174 344.8942 0001760 106.8733 253.2453 15.08846641 94921
STARLINK-3813           
1 52482U 22049AH  24015.15898953  .00000975  00000+0  79291-4 0  9990
2 52482  53.2196 331.0133 0001513  93.9252 266.1913 15.08854745 94113
STARLINK-3875           
1 52483U 22049AJ  24015.03755804  .00001863  00000+0  13507-3 0  9999
2 52483  53.2186 331.5583 0001499  93.0012 267.1151 15.08843947 94099
STARLINK-3887           
1 52484U 22049AK  24014.87840104  .00002354  00000+0  16595-3 0  9995
2 52484  53.2170 342.2752 0001444 106.8921 253.2229 15.08840092 93776
STARLINK-3913           
1 52485U 22049AL  24015.16266384  .00003006  00000+0  20677-3 0  9992
2 52485  53.2190 330.9908 0001810 108.8562 251.2627 15.08858330 94119
STARLINK-3918           
1 52486U 22049AM  24014.34111519  .00000029  00000+0  19953-4 0  9999
2 52486  53.2191 344.6849 0001994 130.7083 229.4083 15.08842868 93696
STARLINK-3902           
1 52487U 22049AN  24015.10749169  .00003946  00000+0  26586-3 0  9993
2 52487  53.2179 331.3520 0001816 119.7698 240.3474 15.08846570 94101
STARLINK-3892           
1 52488U 22049AP  24015.19855544  .00002120  00000+0  15124-3 0  9997
2 52488  53.2204 340.8459 0002071 115.3534 244.7673 15.08848301 93980
STARLINK-3923           
1 52489U 22049AQ  24015.27214200  .00002897  00000+0  19993-3 0  9994
2 52489  53.2177 340.5077 0001429 118.3762 241.7375 15.08857679 93990
STARLINK-3914           
1 52490U 22049AR  24015.28043102  .00003085  00000+0  21175-3 0  9993
2 52490  53.2183 330.4677 0001589  95.8254 264.2920 15.08855587 94134
STARLINK-3908           
1 52491U 22049AS  24015.28778827  .00001097  00000+0  86954-4 0  9991
2 52491  53.2195 330.4290 0001753 121.5825 238.5338 15.08855521 94138
STARLINK-3916           
1 52492U 22049AT  24015.14059891  .00000520  00000+0  50758-4 0  9993
2 52492  53.2198 331.1033 0001851  81.1810 278.9391 15.08847745 94113
STARLINK-3883           
1 52493U 22049AU  24015.15163179  .00005151  00000+0  34133-3 0  9993
2 52493  53.2186 331.0393 0001565 120.6665 239.4482 15.08856478 94114
STARLINK-3857           
1 52494U 22049AV  24015.26203108  .00005246  00000+0  34721-3 0  9991
2 52494  53.2196 330.5523 0001551  98.8897 261.2271 15.08862446 94136
STARLINK-3905           
1 52495U 22049AW  24015.14427484  .00008211  00000+0  53316-3 0  9990
2 52495  53.2174 331.0753 0001554 105.4128 254.7035 15.08856212 94116
STARLINK-3871           
1 52496U 22049AX  24015.23121162  .00005197  00000+0  34424-3 0  9994
2 52496  53.2173 325.6971 0001384 107.9749 252.1394 15.08853611 94035
STARLINK-3884           
1 52497U 22049AY  24014.87196120  .00000530  00000+0  51405-4 0  9995
2 52497  53.2186 332.3003 0001534  97.9513 262.1653 15.08844438 93917
STARLINK-3925           
1 52498U 22049AZ  24015.11208114  .00007583  00000+0  49386-3 0  9990
2 52498  53.2174 321.2347 0001736  85.6712 274.4478 15.08851775 94242
STARLINK-3894           
1 52499U 22049BA  24014.27211762  .00001584  00000+0  11757-3 0  9996
2 52499  53.2177 334.9966 0001546  90.0216 270.0953 15.08844705 93987
STARLINK-3866           
1 52500U 22049BB  24015.10839109  .00004615  00000+0  30770-3 0  9997
2 52500  53.2183 321.2383 0001598 118.1500 241.9654 15.08859626 94247
STARLINK-3907           
1 52501U 22049BC  24015.24361217  .00004239  00000+0  28418-3 0  9991
2 52501  53.2182 330.4281 0001504  82.5865 277.5298 15.08848800 94130
STARLINK-3912           
1 52502U 22049BD  24014.24360222  .00002201  00000+0  15631-3 0  9996
2 52502  53.2174 325.1582 0001585  86.4013 273.7161 15.08844919 93957
STARLINK-3861           
1 52503U 22049BE  24015.24183881  .00002228  00000+0  15802-3 0  9991
2 52503  53.2206 320.6840 0002266  62.6879 297.4344 15.08851796 94266
STARLINK-3951           
1 52533U 22051A   24015.50493283 -.00005755  00000+0 -34395-3 0  9994
2 52533  53.2168  49.6054 0001460  87.7879 272.3281 15.08823233 93125
STARLINK-3952           
1 52534U 22051B   24014.37147520  .00000737  00000+0  64413-4 0  9997
2 52534  53.2169  54.5512 0001588  97.8100 262.3073 15.08840783 93623
STARLINK-3958           
1 52535U 22051C   24014.50027529  .00002113  00000+0  15082-3 0  9996
2 52535  53.2178  53.9617 0001682  92.5797 267.5387 15.08843712 92902
STARLINK-3964           
1 52536U 22051D   24014.43036125  .00002206  00000+0  15668-3 0  9994
2 52536  53.2192  54.2883 0001772  72.2310 287.8875 15.08836108 92890
STARLINK-3897           
1 52537U 22051E   24015.46808865  .00001832  00000+0  13311-3 0  9994
2 52537  53.2188  49.4395 0001712 104.8479 255.2702 15.08849278 93129
STARLINK-3933           
1 52538U 22051F   24014.94923846  .00002269  00000+0  16058-3 0  9990
2 52538  53.2171  51.9607 0001441  91.5647 268.5511 15.08840184 93047
STARLINK-3757           
1 52539U 22051G   24015.41659364  .00001244  00000+0  96253-4 0  9993
2 52539  53.2189  49.8643 0001910  74.9720 285.1484 15.08848753 93113
STARLINK-3940           
1 52540U 22051H   24015.45801358  .00002918  00000+0  20128-3 0  9997
2 52540  53.2172  49.5613 0001646 102.3569 257.7608 15.08855201 93124
STARLINK-3845           
1 52541U 22051J   24015.50261177  .00001702  00000+0  12496-3 0  9992
2 52541  53.2201  54.4660 0001970  80.5918 279.5297 15.08849647 93055
STARLINK-3937           
1 52542U 22051K   24015.46443391  .00007358  00000+0  47970-3 0  9996
2 52542  53.2178  49.6447 0001587 102.2069 257.9101 15.08856753 93129
STARLINK-3926           
1 52543U 22051L   24014.48187850  .00003118  00000+0  21386-3 0  9996
2 52543  53.2182  54.0559 0001803  79.1323 280.9872 15.08844160 92900
STARLINK-3944           
1 52544U 22051M   24014.43542173  .00001801  00000+0  13124-3 0  9993
2 52544  53.2186  59.2796 0001559  85.2945 274.8225 15.08837365 92825
STARLINK-3939           
1 52545U 22051N   24015.47179487  .00002082  00000+0  14886-3 0  9991
2 52545  53.2197  49.6121 0001840  62.8882 297.2298 15.08850982 93120
STARLINK-3948           
1 52546U 22051P   24014.97012645  .00002418  00000+0  17743-3 0  9996
2 52546  53.2175  51.6024 0002074 142.6870 217.4265 15.07208211 93057
STARLINK-3869           
1 52547U 22051Q   24015.49893027  .00000704  00000+0  62313-4 0  9996
2 52547  53.2178  54.4853 0001952 118.9262 241.1926 15.08849217 93053
STARLINK-3931           
1 52548U 22051R   24015.50859107  .00001903  00000+0  13756-3 0  9998
2 52548  53.2178  49.4417 0001679  99.6152 260.5030 15.08851556 93132
STARLINK-3935           
1 52549U 22051S   24014.40091676  .00000619  00000+0  56967-4 0  9991
2 52549  53.2180  54.4228 0001674 105.9510 254.1666 15.08840898 92899
STARLINK-3965           
1 52550U 22051T   24015.38347717  .00000893  00000+0  74209-4 0  9994
2 52550  53.2191  50.0105 0001861 102.3275 257.7926 15.08841556 93112
STARLINK-3969           
1 52551U 22051U   24015.39083865  .00003361  00000+0  22920-3 0  9992
2 52551  53.2187  49.9852 0001793 109.3810 250.7376 15.08837572 93115
STARLINK-3966           
1 52552U 22051V   24015.50587332  .00000599  00000+0  55733-4 0  9993
2 52552  53.2182  49.4610 0002099 107.4796 252.6426 15.08843732 93134
STARLINK-3858           
1 52553U 22051W   24015.35399286  .00000622  00000+0  57197-4 0  9999
2 52553  53.2196  49.7910 0001685  90.4288 269.6897 15.08845699 93115
STARLINK-3770           
1 52554U 22051X   24015.49156645  .00002103  00000+0  15013-3 0  9991
2 52554  53.2190  54.5261 0001783  93.9282 266.1914 15.08858047 93050
STARLINK-3949           
1 52555U 22051Y   24015.38716342  .00001694  00000+0  12451-3 0  9993
2 52555  53.2196  50.0708 0001926 103.4803 256.6404 15.08845918 93117
STARLINK-3763           
1 52556U 22051Z   24015.05454718 -.00000196  00000+0  58477-5 0  9991
2 52556  53.2188  40.1771 0001412  88.7428 271.3728 15.12114880 93224
